{"type": "FeatureCollection", "features": [ {"type": "Feature", "properties": {"norad_id": 39620, "name": "COSMOS 2492 (754)", "group": "gnss", "lat": -52.50716957156308, "lon": -76.07878108695886, "alt_km": 19100.34986525129, "timestamp": "2025-12-03T13:52:09.803936+00:00", "meta": {"OBJECT_NAME": "COSMOS 2492 (754)", "OBJECT_ID": "2014-012A", "EPOCH": "2025-12-02T17:14:30.403680", "MEAN_MOTION": 2.13103072, "ECCENTRICITY": 0.00141646, "INCLINATION": 65.4134, "RA_OF_ASC_NODE": 320.6107, "ARG_OF_PERICENTER": 311.0276, "MEAN_ANOMALY": 48.8557, "EPHEMERIS_TYPE": 0, "CLASSIFICATION_TYPE": "U", "NORAD_CAT_ID": 39620, "ELEMENT_SET_NO": 999, "REV_AT_EPOCH": 9105, "BSTAR": 0, "MEAN_MOTION_DOT": -3.6e-07, "MEAN_MOTION_DDOT": 0}, "tle": {"line1": "1 39620U 14012A   25336.71840745 -.00000036  00000+0  00000+0 0  9991", "line2": "2 39620  65.4134 320.6107 0014164 311.0276  48.8557  2.13103072 91051"}}, "geometry": {"type": "Point", "coordinates": [-76.07878108695886, -52.50716957156308]}}, {"type": "Feature", "properties": {"norad_id": 39635, "name": "IRNSS-1B", "group": "gnss", "lat": 28.86179157189367, "lon": -24.28564842368287, "alt_km": 35783.137443016465, "timestamp": "2025-12-03T13:52:09.803947+00:00", "meta": {"OBJECT_NAME": "IRNSS-1B", "OBJECT_ID": "2014-017A", "EPOCH": "2025-12-02T19:49:18.476256", "MEAN_MOTION": 1.00275376, "ECCENTRICITY": 0.00176186, "INCLINATION": 28.8417, "RA_OF_ASC_NODE": 243.7617, "ARG_OF_PERICENTER": 183.0296, "MEAN_ANOMALY": 357.4832, "EPHEMERIS_TYPE": 0, "CLASSIFICATION_TYPE": "U", "NORAD_CAT_ID": 39635, "ELEMENT_SET_NO": 999, "REV_AT_EPOCH": 4282, "BSTAR": 0, "MEAN_MOTION_DOT": 1.22e-06, "MEAN_MOTION_DDOT": 0}, "tle": {"line1": "1 39635U 14017A   25336.82590829  .00000122  00000+0  00000+0 0  9994", "line2": "2 39635  28.8417 243.7617 0017618 183.0296 357.4832  1.00275376 42829"}}, "geometry": {"type": "Point", "coordinates": [-24.28564842368287, 28.86179157189367]}}, {"type": "Feature", "properties": {"norad_id": 39727, "name": "LUCH 5V (SDCM/PRN 141)", "group": "gnss", "lat": -3.834735797088078, "lon": 15.600986716807368, "alt_km": 35791.59149959589, "timestamp": "2025-12-03T13:52:09.803959+00:00", "meta": {"OBJECT_NAME": "LUCH 5V (SDCM/PRN 141)", "OBJECT_ID": "2014-023A", "EPOCH": "2025-12-03T07:21:08.652960", "MEAN_MOTION": 1.00271893, "ECCENTRICITY": 0.00044971, "INCLINATION": 4.6439, "RA_OF_ASC_NODE": 71.6188, "ARG_OF_PERICENTER": 198.8244, "MEAN_ANOMALY": 7.0165, "EPHEMERIS_TYPE": 0, "CLASSIFICATION_TYPE": "U", "NORAD_CAT_ID": 39727, "ELEMENT_SET_NO": 999, "REV_AT_EPOCH": 4239, "BSTAR": 0, "MEAN_MOTION_DOT": -2.53e-06, "MEAN_MOTION_DDOT": 0}, "tle": {"line1": "1 39727U 14023A   25337.30635015 -.00000253  00000+0  00000+0 0  9990", "line2": "2 39727   4.6439  71.6188 0004497 198.8244   7.0165  1.00271893 42395"}}, "geometry": {"type": "Point", "coordinates": [15.600986716807368, -3.834735797088078]}}, {"type": "Feature", "properties": {"norad_id": 39741, "name": "GPS BIIF-6  (PRN 06)", "group": "gnss", "lat": 34.29847443462156, "lon": 5.898318184407765, "alt_km": 20167.865694286367, "timestamp": "2025-12-03T13:52:09.803971+00:00", "meta": {"OBJECT_NAME": "GPS BIIF-6  (PRN 06)", "OBJECT_ID": "2014-026A", "EPOCH": "2025-12-02T00:33:52.454592", "MEAN_MOTION": 2.0056192, "ECCENTRICITY": 0.00388896, "INCLINATION": 56.5877, "RA_OF_ASC_NODE": 339.1935, "ARG_OF_PERICENTER": 318.1232, "MEAN_ANOMALY": 41.6099, "EPHEMERIS_TYPE": 0, "CLASSIFICATION_TYPE": "U", "NORAD_CAT_ID": 39741, "ELEMENT_SET_NO": 999, "REV_AT_EPOCH": 8458, "BSTAR": 0, "MEAN_MOTION_DOT": -5.7e-07, "MEAN_MOTION_DDOT": 0}, "tle": {"line1": "1 39741U 14026A   25336.02352378 -.00000057  00000+0  00000+0 0  9997", "line2": "2 39741  56.5877 339.1935 0038889 318.1232  41.6099  2.00561920 84582"}}, "geometry": {"type": "Point", "coordinates": [5.898318184407765, 34.29847443462156]}}, {"type": "Feature", "properties": {"norad_id": 40001, "name": "COSMOS 2500 (755)", "group": "gnss", "lat": 11.712661630617603, "lon": 134.87198445827482, "alt_km": 19115.59088007082, "timestamp": "2025-12-03T13:52:09.803983+00:00", "meta": {"OBJECT_NAME": "COSMOS 2500 (755)", "OBJECT_ID": "2014-032A", "EPOCH": "2025-12-01T22:51:13.641408", "MEAN_MOTION": 2.13105853, "ECCENTRICITY": 0.00082978, "INCLINATION": 65.3495, "RA_OF_ASC_NODE": 320.3998, "ARG_OF_PERICENTER": 219.081, "MEAN_ANOMALY": 140.8682, "EPHEMERIS_TYPE": 0, "CLASSIFICATION_TYPE": "U", "NORAD_CAT_ID": 40001, "ELEMENT_SET_NO": 999, "REV_AT_EPOCH": 8925, "BSTAR": 0, "MEAN_MOTION_DOT": -3.1e-07, "MEAN_MOTION_DDOT": 0}, "tle": {"line1": "1 40001U 14032A   25335.95224122 -.00000031  00000+0  00000+0 0  9993", "line2": "2 40001  65.3495 320.3998 0008297 219.0810 140.8682  2.13105853 89251"}}, "geometry": {"type": "Point", "coordinates": [134.87198445827482, 11.712661630617603]}}, {"type": "Feature", "properties": {"norad_id": 40105, "name": "GPS BIIF-7  (PRN 09)", "group": "gnss", "lat": -17.26637441325595, "lon": 83.78804792860427, "alt_km": 20251.663271335034, "timestamp": "2025-12-03T13:52:09.803997+00:00", "meta": {"OBJECT_NAME": "GPS BIIF-7  (PRN 09)", "OBJECT_ID": "2014-045A", "EPOCH": "2025-12-02T02:40:49.418112", "MEAN_MOTION": 2.00571797, "ECCENTRICITY": 0.00329353, "INCLINATION": 55.2223, "RA_OF_ASC_NODE": 96.323, "ARG_OF_PERICENTER": 119.6015, "MEAN_ANOMALY": 240.7039, "EPHEMERIS_TYPE": 0, "CLASSIFICATION_TYPE": "U", "NORAD_CAT_ID": 40105, "ELEMENT_SET_NO": 999, "REV_AT_EPOCH": 8212, "BSTAR": 0, "MEAN_MOTION_DOT": 7e-08, "MEAN_MOTION_DDOT": 0}, "tle": {"line1": "1 40105U 14045A   25336.11168308  .00000007  00000+0  00000+0 0  9996", "line2": "2 40105  55.2223  96.3230 0032935 119.6015 240.7039  2.00571797 82125"}}, "geometry": {"type": "Point", "coordinates": [83.78804792860427, -17.26637441325595]}}, {"type": "Feature", "properties": {"norad_id": 40128, "name": "GSAT0201 (GALILEO 5)", "group": "gnss", "lat": -47.351492493401174, "lon": 171.50033583979678, "alt_km": 20446.2262003142, "timestamp": "2025-12-03T13:52:09.804008+00:00", "meta": {"OBJECT_NAME": "GSAT0201 (GALILEO 5)", "OBJECT_ID": "2014-050A", "EPOCH": "2025-11-28T09:00:06.762528", "MEAN_MOTION": 1.85519533, "ECCENTRICITY": 0.16464881, "INCLINATION": 49.0938, "RA_OF_ASC_NODE": 281.6492, "ARG_OF_PERICENTER": 171.7362, "MEAN_ANOMALY": 191.3851, "EPHEMERIS_TYPE": 0, "CLASSIFICATION_TYPE": "U", "NORAD_CAT_ID": 40128, "ELEMENT_SET_NO": 999, "REV_AT_EPOCH": 7459, "BSTAR": 0, "MEAN_MOTION_DOT": -4.8e-07, "MEAN_MOTION_DDOT": 0}, "tle": {"line1": "1 40128U 14050A   25332.37507827 -.00000048  00000+0  00000+0 0  9990", "line2": "2 40128  49.0938 281.6492 1646488 171.7362 191.3851  1.85519533 74599"}}, "geometry": {"type": "Point", "coordinates": [171.50033583979678, -47.351492493401174]}}, {"type": "Feature", "properties": {"norad_id": 40129, "name": "GSAT0202 (GALILEO 6)", "group": "gnss", "lat": 35.23189416816698, "lon": -41.82136055497356, "alt_km": 23506.4216830561, "timestamp": "2025-12-03T13:52:09.804022+00:00", "meta": {"OBJECT_NAME": "GSAT0202 (GALILEO 6)", "OBJECT_ID": "2014-050B", "EPOCH": "2025-12-02T22:38:17.581920", "MEAN_MOTION": 1.8552031, "ECCENTRICITY": 0.16475708, "INCLINATION": 49.1042, "RA_OF_ASC_NODE": 280.5465, "ARG_OF_PERICENTER": 172.6616, "MEAN_ANOMALY": 190.1192, "EPHEMERIS_TYPE": 0, "CLASSIFICATION_TYPE": "U", "NORAD_CAT_ID": 40129, "ELEMENT_SET_NO": 999, "REV_AT_EPOCH": 7684, "BSTAR": 0, "MEAN_MOTION_DOT": -5.9e-07, "MEAN_MOTION_DDOT": 0}, "tle": {"line1": "1 40129U 14050B   25336.94325905 -.00000059  00000+0  00000+0 0  9995", "line2": "2 40129  49.1042 280.5465 1647570 172.6616 190.1192  1.85520310 76840"}}, "geometry": {"type": "Point", "coordinates": [-41.82136055497356, 35.23189416816698]}}, {"type": "Feature", "properties": {"norad_id": 40269, "name": "IRNSS-1C", "group": "gnss", "lat": -6.002228259462149, "lon": 3.4531106418813455, "alt_km": 35790.009151498714, "timestamp": "2025-12-03T13:52:09.804034+00:00", "meta": {"OBJECT_NAME": "IRNSS-1C", "OBJECT_ID": "2014-061A", "EPOCH": "2025-12-02T22:14:51.504864", "MEAN_MOTION": 1.00269297, "ECCENTRICITY": 0.0017863, "INCLINATION": 6.016, "RA_OF_ASC_NODE": 92.8175, "ARG_OF_PERICENTER": 2.7843, "MEAN_ANOMALY": 33.1048, "EPHEMERIS_TYPE": 0, "CLASSIFICATION_TYPE": "U", "NORAD_CAT_ID": 40269, "ELEMENT_SET_NO": 999, "REV_AT_EPOCH": 4072, "BSTAR": 0, "MEAN_MOTION_DOT": -1.43e-06, "MEAN_MOTION_DDOT": 0}, "tle": {"line1": "1 40269U 14061A   25336.92698501 -.00000143  00000+0  00000+0 0  9999", "line2": "2 40269   6.0160  92.8175 0017863   2.7843  33.1048  1.00269297 40725"}}, "geometry": {"type": "Point", "coordinates": [3.4531106418813455, -6.002228259462149]}}, {"type": "Feature", "properties": {"norad_id": 40294, "name": "GPS BIIF-8  (PRN 03)", "group": "gnss", "lat": 50.87016193716215, "lon": 91.8771253401756, "alt_km": 20014.566983742512, "timestamp": "2025-12-03T13:52:09.804046+00:00", "meta": {"OBJECT_NAME": "GPS BIIF-8  (PRN 03)", "OBJECT_ID": "2014-068A", "EPOCH": "2025-12-02T11:42:10.325664", "MEAN_MOTION": 2.00564029, "ECCENTRICITY": 0.00608197, "INCLINATION": 56.8498, "RA_OF_ASC_NODE": 38.5427, "ARG_OF_PERICENTER": 69.4176, "MEAN_ANOMALY": 291.2841, "EPHEMERIS_TYPE": 0, "CLASSIFICATION_TYPE": "U", "NORAD_CAT_ID": 40294, "ELEMENT_SET_NO": 999, "REV_AT_EPOCH": 8126, "BSTAR": 0, "MEAN_MOTION_DOT": -6.5e-07, "MEAN_MOTION_DDOT": 0}, "tle": {"line1": "1 40294U 14068A   25336.48761951 -.00000065  00000+0  00000+0 0  9998", "line2": "2 40294  56.8498  38.5427 0060819  69.4176 291.2841  2.00564029 81269"}}, "geometry": {"type": "Point", "coordinates": [91.8771253401756, 50.87016193716215]}}]}